NORAD_CAT_ID,OBJECT_NAME,OBJECT_TYPE,EPOCH,MEAN_MOTION,ECCENTRICITY,INCLINATION,RA_OF_ASC_NODE,ARG_OF_PERICENTER,MEAN_ANOMALY,BSTAR,MEAN_MOTION_DOT,MEAN_MOTION_DDOT,TLE_LINE0,TLE_LINE1,TLE_LINE2,SEMIMAJOR_AXIS,PERIOD,APOGEE,PERIGEE,DECAYED
51146.0,STARLINK-3354,PAYLOAD,2022-03-29 22:00:00,15.48778296,0.0001705,53.2168,290.9437,48.8891,12.6208,0.0006766,0.00036662,0.0,0 STARLINK-3354,1 51146U 22005AU  22088.91667824  .00036662  00000-0  67660-3 0  9990,2 51146  53.2168 290.9437 0001705  48.8891  12.6208 15.48778296  3648,6798.436,92.977,421.46,419.142,0.0
51146.0,STARLINK-3354,PAYLOAD,2022-03-30 12:00:00,15.48782537,0.0001414,53.2171,288.1605,55.2876,20.557,0.0068676999999999,0.00394063,0.0,0 STARLINK-3354,1 51146U 22005AU  22089.50001157  .00394063  00000-0  68677-2 0  9997,2 51146  53.2171 288.1605 0001414  55.2876  20.5570 15.48782537 12373,6798.4230000000025,92.976,421.25,419.327,0.0
51146.0,STARLINK-3354,PAYLOAD,2022-03-30 14:00:01,15.48758684,0.0001528,53.2173,287.7637,50.7826,130.0507,0.010962,0.00650106,0.0,0 STARLINK-3354,1 51146U 22005AU  22089.58335648  .00650106  00000-0  10962-1 0  9996,2 51146  53.2173 287.7637 0001528  50.7826 130.0507 15.48758684  3650,6798.493,92.978,421.397,419.319,0.0
51146.0,STARLINK-3354,PAYLOAD,2022-03-30 20:00:01,15.49530173,0.0001933,53.2175,286.5749,45.19300000000001,90.2952,-0.020297,-0.0103537,0.0,0 STARLINK-3354,1 51146U 22005AU  22089.83334491 -.01035370  00000-0 -20297-1 0  9994,2 51146  53.2175 286.5749 0001933  45.1930  90.2952 15.49530173 12425,6796.236,92.931,419.415,416.788,0.0
51146.0,STARLINK-3354,PAYLOAD,2022-03-30 22:00:00,15.494509400000002,0.0001735,53.2177,286.1782,42.42100000000001,198.1169,-0.023747,-0.0120878,0.0,0 STARLINK-3354,1 51146U 22005AU  22089.91667824 -.01208780  00000-0 -23747-1 0  9992,2 51146  53.2177 286.1782 0001735  42.4210 198.1169 15.49450940  3703,6796.468000000003,92.936,419.512,417.154,0.0
51146.0,STARLINK-3354,PAYLOAD,2022-03-31 06:00:00,15.48447771,0.0001524,53.2176,284.5864,44.9689,255.4887,-0.010649,-0.00537172,0.0,0 STARLINK-3354,1 51146U 22005AU  22090.25001157 -.00537172  00000-0 -10649-1 0  9998,2 51146  53.2176 284.5864 0001524  44.9689 255.4887 15.48447771 12495,6799.403,92.996,422.305,420.232,0.0
51146.0,STARLINK-3354,PAYLOAD,2022-03-31 14:00:01,15.48073878,0.0001467,53.2178,282.9989,38.7244,320.6952,-0.014635,-0.00721496,0.0,0 STARLINK-3354,1 51146U 22005AU  22090.58334491 -.00721496  00000-0 -14635-1 0  9997,2 51146  53.2178 282.9989 0001467  38.7244 320.6952 15.48073878 12548,6800.498000000001,93.019,423.361,421.365,0.0
51146.0,STARLINK-3354,PAYLOAD,2022-03-31 22:00:00,15.47563172,0.0001738,53.2176,281.4132,33.5378,24.306,-0.014895,-0.00721348,0.0,0 STARLINK-3354,1 51146U 22005AU  22090.91667824 -.00721348  00000-0 -14895-1 0  9997,2 51146  53.2176 281.4132 0001738  33.5378  24.3060 15.47563172  3696,6801.994000000002,93.05,425.041,422.677,0.0
51146.0,STARLINK-3354,PAYLOAD,2022-04-01 14:00:01,15.46542261,0.0001856,53.2177,278.24,37.8345,135.0216,-0.015373,-0.00718702,0.0,0 STARLINK-3354,1 51146U 22005AU  22091.58334491 -.00718702  00000-0 -15373-1 0  9994,2 51146  53.2177 278.2400 0001856  37.8345 135.0216 15.46542261 12701,6804.986999999999,93.111,428.115,425.589,0.0
51146.0,STARLINK-3354,PAYLOAD,2022-04-01 22:00:00,15.46030927,0.0001797,53.2175,276.6578,40.9333,188.5086,-0.015596,-0.00716484,0.0,0 STARLINK-3354,1 51146U 22005AU  22091.91667824 -.00716484  00000-0 -15596-1 0  9992,2 51146  53.2175 276.6578 0001797  40.9333 188.5086 15.46030927  3667,6806.488,93.142,429.576,427.129,0.0
51146.0,STARLINK-3354,PAYLOAD,2022-04-02 14:00:01,15.45014569,0.0001533,53.2176,273.492,41.8432,298.9972,-0.016294,-0.00722271,0.0,0 STARLINK-3354,1 51146U 22005AU  22092.58335648 -.00722271  00000-0 -16294-1 0  9999,2 51146  53.2176 273.4920 0001533  41.8432 298.9972 15.45014569 12856,6809.472,93.203,432.381,430.293,0.0
51146.0,STARLINK-3354,PAYLOAD,2022-04-02 22:00:01,15.44501809,0.0001518,53.2174,271.9136,40.768,354.8205,-0.016484,-0.00718274,0.0,0 STARLINK-3354,1 51146U 22005AU  22092.91668981 -.00718274  00000-0 -16484-1 0  9994,2 51146  53.2174 271.9136 0001518  40.7680 354.8205 15.44501809  3670,6810.979,93.234,433.878,431.81,0.0
51146.0,STARLINK-3354,PAYLOAD,2022-04-03 22:00:00,15.42968734,0.0001644,53.2174,267.1803,46.2338,149.8587,-0.017211,-0.00712306,0.0,0 STARLINK-3354,1 51146U 22005AU  22093.91667824 -.00712306  00000-0 -17211-1 0  9999,2 51146  53.2174 267.1803 0001644  46.2338 149.8587 15.42968734 13060,6815.49,93.327,438.476,436.235,0.0
51146.0,STARLINK-3354,PAYLOAD,2022-04-04 14:00:01,15.41953695,0.000173,53.2177,264.0292,38.1859,261.8866,-0.018026,-0.00720291,0.0,0 STARLINK-3354,1 51146U 22005AU  22094.58334491 -.00720291  00000-0 -18026-1 0  9991,2 51146  53.2177 264.0292 0001730  38.1859 261.8866 15.41953695  3697,6818.481,93.388,441.525,439.166,0.0
51146.0,STARLINK-3354,PAYLOAD,2022-04-04 22:00:00,15.41441689,0.0001614,53.2175,262.4578,37.2138,313.9297,-0.018239,-0.00716654,0.0,0 STARLINK-3354,1 51146U 22005AU  22094.91667824 -.00716654  00000-0 -18239-1 0  9991,2 51146  53.2175 262.4578 0001614  37.2138 313.9297 15.41441689 13216,6819.991,93.419,442.956,440.755,0.0
51146.0,STARLINK-3354,PAYLOAD,2022-04-05 14:00:01,15.40355801,0.0001281999999999,53.2177,259.3127,38.2309,53.3208,-0.016568,-0.00626354,0.0,0 STARLINK-3354,1 51146U 22005AU  22095.58335648 -.00626354  00000-0 -16568-1 0  9991,2 51146  53.2177 259.3127 0001282  38.2309  53.3208 15.40355801  3636,6823.195,93.485,445.935,444.186,0.0
51146.0,STARLINK-3354,PAYLOAD,2022-04-05 22:00:00,15.39909246,0.0001622,53.2173,257.7462,45.0645,95.6172,-0.019073,-0.00712438,0.0,0 STARLINK-3354,1 51146U 22005AU  22095.91667824 -.00712438  00000-0 -19073-1 0  9995,2 51146  53.2173 257.7462 0001622  45.0645  95.6172 15.39909246 13370,6824.514,93.512,447.486,445.273,0.0
51146.0,STARLINK-3354,PAYLOAD,2022-04-06 14:00:01,15.38892355,0.0001791,53.2176,254.6102,41.1559,196.1528,-0.019874,-0.00717448,0.0,0 STARLINK-3354,1 51146U 22005AU  22096.58334491 -.00717448  00000-0 -19874-1 0  9995,2 51146  53.2176 254.6102 0001791  41.1559 196.1528 15.38892355  3662,6827.521,93.574,450.608,448.163,0.0
51146.0,STARLINK-3354,PAYLOAD,2022-04-06 22:00:00,15.38381197,0.000145,53.2173,253.0455,53.4536,231.2491,-0.020132,-0.00714807,0.0,0 STARLINK-3354,1 51146U 22005AU  22096.91667824 -.00714807  00000-0 -20132-1 0  9996,2 51146  53.2173 253.0455 0001450  53.4536 231.2491 15.38381197 13529,6829.033,93.605,451.888,449.908,0.0
51146.0,STARLINK-3354,PAYLOAD,2022-04-07 14:00:01,15.37364159,0.0001641,53.2177,249.9171,37.1688,340.4844,-0.020986,-0.00720326,0.0,0 STARLINK-3354,1 51146U 22005AU  22097.58334491 -.00720326  00000-0 -20986-1 0  9991,2 51146  53.2177 249.9171 0001641  37.1688 340.4844 15.37364159  3668,6832.044,93.667,455.03,452.788,0.0
51146.0,STARLINK-3354,PAYLOAD,2022-04-07 20:00:01,15.36979638,0.0001392,53.2175,248.7465,54.9174,266.9604,-0.021135,-0.00716671,0.0,0 STARLINK-3354,1 51146U 22005AU  22097.83334491 -.00716671  00000-0 -21135-1 0  9994,2 51146  53.2175 248.7465 0001392  54.9174 266.9604 15.36979638 13669,6833.184,93.69,456.0,454.098,0.0
51146.0,STARLINK-3354,PAYLOAD,2022-04-07 22:00:00,15.36852238,0.0001418,53.2172,248.356,46.918,16.2912,-0.02121,-0.00716277,0.0,0 STARLINK-3354,1 51146U 22005AU  22097.91667824 -.00716277  00000-0 -21210-1 0  9998,2 51146  53.2172 248.3560 0001418  46.9180  16.2912 15.36852238  3657,6833.561,93.698,456.395,454.457,0.0
51146.0,STARLINK-3354,PAYLOAD,2022-04-08 14:00:03,15.35831975,0.0001819,53.2174,245.2346,39.144,113.4683,-0.021935,-0.00716709,0.0,0 STARLINK-3354,1 51146U 22005AU  22098.58336806 -.00716709  00000-0 -21935-1 0  9999,2 51146  53.2174 245.2346 0001819  39.1440 113.4683 15.35831975  3665,6836.587,93.76,459.696,457.209,0.0
51146.0,STARLINK-3354,PAYLOAD,2022-04-08 22:00:00,15.35322566,0.0001575999999999,53.2171,243.6771,50.6636,145.5376,-0.022308,-0.0071697,0.0,0 STARLINK-3354,1 51146U 22005AU  22098.91667824 -.00716970  00000-0 -22308-1 0  9998,2 51146  53.2171 243.6771 0001576  50.6636 145.5376 15.35322566 13837,6838.1,93.791,461.042,458.887,0.0
51146.0,STARLINK-3354,PAYLOAD,2022-04-09 14:00:01,15.34302074,0.0001684,53.2173,240.5633,44.1451,237.6539,-0.023017,-0.00716033,0.0,0 STARLINK-3354,1 51146U 22005AU  22099.58334491 -.00716033  00000-0 -23017-1 0  9991,2 51146  53.2173 240.5633 0001684  44.1451 237.6539 15.34302074  3660,6841.130999999999,93.854,464.148,461.844,0.0
51146.0,STARLINK-3354,PAYLOAD,2022-04-09 22:00:00,15.33794156,0.0001426,53.2172,239.009,50.6042,273.073,-0.023494,-0.00718853,0.0,0 STARLINK-3354,1 51146U 22005AU  22099.91667824 -.00718853  00000-0 -23494-1 0  9998,2 51146  53.2172 239.0090 0001426  50.6042 273.0730 15.33794156 13989,6842.642,93.885,465.482,463.531,0.0
51146.0,STARLINK-3354,PAYLOAD,2022-04-10 14:00:01,15.32773794,0.0001844,53.2174,235.9029,32.284,13.3144,-0.024269,-0.00718946,0.0,0 STARLINK-3354,1 51146U 22005AU  22100.58334491 -.00718946  00000-0 -24269-1 0  9999,2 51146  53.2174 235.9029 0001844  32.2840  13.3144 15.32773794  3666,6845.678000000001,93.947,468.805,466.281,0.0
51146.0,STARLINK-3354,PAYLOAD,2022-04-10 22:00:00,15.32262555,0.0001551999999999,53.2172,234.352,43.2953,42.3442,-0.024558,-0.00716041,0.0,0 STARLINK-3354,1 51146U 22005AU  22100.91667824 -.00716041  00000-0 -24558-1 0  9990,2 51146  53.2172 234.3520 0001552  43.2953  42.3442 15.32262555  3678,6847.201,93.979,470.128,468.003,0.0
51146.0,STARLINK-3354,PAYLOAD,2022-04-11 04:00:01,15.31879964,0.0001691,53.2175,233.1879,37.676,347.6572,-0.024883,-0.00716783,0.0,0 STARLINK-3354,1 51146U 22005AU  22101.16668981 -.00716783  00000-0 -24883-1 0  9997,2 51146  53.2175 233.1879 0001691  37.6760 347.6572 15.31879964 14171,6848.340999999999,94.002,471.364,469.048,0.0
